NORAD_CAT_ID,OBJECT_NAME,OBJECT_TYPE,EPOCH,MEAN_MOTION,ECCENTRICITY,INCLINATION,RA_OF_ASC_NODE,ARG_OF_PERICENTER,MEAN_ANOMALY,BSTAR,MEAN_MOTION_DOT,MEAN_MOTION_DDOT,TLE_LINE0,TLE_LINE1,TLE_LINE2,SEMIMAJOR_AXIS,PERIOD,APOGEE,PERIGEE,DECAYED
54092.0,STARLINK-5190,PAYLOAD,2024-08-05 19:30:50,15.23487906,0.0002495,53.1899,45.5169,324.7317,35.3516,0.00074793,0.00017782,0.0,0 STARLINK-5190,1 54092U 22136AT  24218.81308247  .00017782  00000-0  74793-3 0  9992,2 54092  53.1899  45.5169 0002495 324.7317  35.3516 15.23487906 99998,6873.467,94.52,497.047,493.617,0.0
54092.0,STARLINK-5190,PAYLOAD,2024-08-06 12:49:57,15.23525763,0.0002684,53.1897,42.1998,327.3784,32.7048,0.00087137,0.00020805,0.0,0 STARLINK-5190,1 54092U 22136AT  24219.53469820  .00020805  00000-0  87137-3 0  9993,2 54092  53.1897  42.1998 0002684 327.3784  32.7048 15.23525763100107,6873.353,94.518,497.063,493.373,0.0
54092.0,STARLINK-5190,PAYLOAD,2024-08-06 19:07:49,15.23540788,0.0002705,53.1902,40.9954,327.3007,32.7823,0.00089232,0.00021324,0.0,0 STARLINK-5190,1 54092U 22136AT  24219.79709948  .00021324  00000-0  89232-3 0  9994,2 54092  53.1902  40.9954 0002705 327.3007  32.7823 15.23540788 99678,6873.308,94.517,497.032,493.313,0.0
54092.0,STARLINK-5190,PAYLOAD,2024-08-07 12:26:55,15.23567163,0.000281,53.1905,37.6786,329.1642,30.9191,0.00082427,0.00019684,0.0,0 STARLINK-5190,1 54092U 22136AT  24220.51869644  .00019684  00000-0  82427-3 0  9991,2 54092  53.1905  37.6786 0002810 329.1642  30.9191 15.23567163 99785,6873.228,94.515,497.025,493.162,0.0
54092.0,STARLINK-5190,PAYLOAD,2024-08-07 18:44:46,15.23574452,0.0002825,53.1906,36.4731,329.2065,30.8767,0.00075196,0.00017927,0.0,0 STARLINK-5190,1 54092U 22136AT  24220.78109253  .00017927  00000-0  75196-3 0  9996,2 54092  53.1906  36.4731 0002825 329.2065  30.8767 15.23574452100295,6873.206,94.515,497.013,493.13,0.0
54092.0,STARLINK-5190,PAYLOAD,2024-08-08 12:03:51,15.23597269,0.0002778,53.1912,33.1591,330.9175,29.1668,0.00075134,0.00017924,0.0,0 STARLINK-5190,1 54092U 22136AT  24221.50267500  .00017924  00000-0  75134-3 0  9996,2 54092  53.1912  33.1591 0002778 330.9175  29.1668 15.23597269 99938,6873.138,94.513,496.912,493.093,0.0
54092.0,STARLINK-5190,PAYLOAD,2024-08-08 18:21:41,15.23608952,0.0002823,53.191,31.9524,330.9967,29.0874,0.00082856,0.00019813,0.0,0 STARLINK-5190,1 54092U 22136AT  24221.76506489  .00019813  00000-0  82856-3 0  9994,2 54092  53.1910  31.9524 0002823 330.9967  29.0874 15.23608952 99972,6873.103,94.512,496.908,493.027,0.0
54092.0,STARLINK-5190,PAYLOAD,2024-08-09 11:40:44,15.23655367,0.0002904,53.1909,28.6355,331.8553,28.2288,0.0010877,0.00026174,0.0,0 STARLINK-5190,1 54092U 22136AT  24222.48662070  .00026174  00000-0  10877-2 0  9994,2 54092  53.1909  28.6355 0002904 331.8553  28.2288 15.23655367100555,6872.963,94.51,496.824,492.832,0.0
54092.0,STARLINK-5190,PAYLOAD,2024-08-09 21:07:28,15.23694012,0.0003106,53.1913,26.8282,334.2059,25.8784,0.0013879,0.00033564,0.0,0 STARLINK-5190,1 54092U 22136AT  24222.88018526  .00033564  00000-0  13879-2 0  9995,2 54092  53.1913  26.8282 0003106 334.2059  25.8784 15.23694012100141,6872.847,94.507,496.847,492.577,0.0
54092.0,STARLINK-5190,PAYLOAD,2024-08-10 11:17:32,15.23746679,0.0003135,53.1918,24.1151,335.3056,24.7792,0.0014452,0.00035026,0.0,0 STARLINK-5190,1 54092U 22136AT  24223.47051477  .00035026  00000-0  14452-2 0  9996,2 54092  53.1918  24.1151 0003135 335.3056  24.7792 15.23746679100709,6872.688,94.504,496.708,492.399,0.0
54092.0,STARLINK-5190,PAYLOAD,2024-08-10 14:26:26,15.23762019,0.0003165,53.1917,23.5119,335.8938,24.1911,0.0016517,0.00040125,0.0,0 STARLINK-5190,1 54092U 22136AT  24223.60169635  .00040125  00000-0  16517-2 0  9997,2 54092  53.1917  23.5119 0003165 335.8938  24.1911 15.23762019100255,6872.642,94.503,496.683,492.332,0.0
54092.0,STARLINK-5190,PAYLOAD,2024-08-10 17:35:20,15.23775252,0.0003188,53.1919,22.9091,336.7083,23.377,0.0017243,0.00041931,0.0,0 STARLINK-5190,1 54092U 22136AT  24223.73287685  .00041931  00000-0  17243-2 0  9990,2 54092  53.1919  22.9091 0003188 336.7083  23.3770 15.23775252100274,6872.603,94.502,496.659,492.277,0.0
54092.0,STARLINK-5190,PAYLOAD,2024-08-11 10:54:15,15.23857059,0.0003365,53.1922,19.5927,338.2971,21.7884,0.002005,0.00048979,0.0,0 STARLINK-5190,1 54092U 22136AT  24224.45434598  .00048979  00000-0  20050-2 0  9996,2 54092  53.1922  19.5927 0003365 338.2971  21.7884 15.23857059100856,6872.357,94.497,496.534,491.909,0.0
54092.0,STARLINK-5190,PAYLOAD,2024-08-11 20:20:54,15.23911758,0.0003445,53.1922,17.7841,339.3833,20.7026,0.0024878,0.00061054,0.0,0 STARLINK-5190,1 54092U 22136AT  24224.84785749  .00061054  00000-0  24878-2 0  9997,2 54092  53.1922  17.7841 0003445 339.3833  20.7026 15.23911758100910,6872.192,94.494,496.425,491.69,0.0
54092.0,STARLINK-5190,PAYLOAD,2024-08-12 10:30:52,15.2395117,0.0002718,53.1925,15.0689,347.1986,12.8943,0.0015417,0.00037629,0.0,0 STARLINK-5190,1 54092U 22136AT  24225.43811048  .00037629  00000-0  15417-2 0  9995,2 54092  53.1925  15.0689 0002718 347.1986  12.8943 15.23951170101005,6872.074,94.491,495.807,492.071,0.0
54092.0,STARLINK-5190,PAYLOAD,2024-08-12 16:48:38,15.23983491,0.0003143,53.192,13.8654,351.4509,8.6436,0.0022926,0.0005632,0.0,0 STARLINK-5190,1 54092U 22136AT  24225.70044014  .00056320  00000-0  22926-2 0  9998,2 54092  53.1920  13.8654 0003143 351.4509   8.6436 15.23983491101045,6871.977,94.489,496.001,491.682,0.0
54092.0,STARLINK-5190,PAYLOAD,2024-08-13 10:07:24,15.24053291,0.0003695,53.1908,10.5454,342.5754,17.5117,0.0016053,0.00039327,0.0,0 STARLINK-5190,1 54092U 22136AT  24226.42181275  .00039327  00000-0  16053-2 0  9991,2 54092  53.1908  10.5454 0003695 342.5754  17.5117 15.24053291101152,6871.767,94.485,496.171,491.093,0.0
54092.0,STARLINK-5190,PAYLOAD,2024-08-13 17:59:33,15.2410103,0.0003822,53.1921,9.0388,342.0621,18.0242,0.0017495,0.00042973,0.0,0 STARLINK-5190,1 54092U 22136AT  24226.74969567  .00042973  00000-0  17495-2 0  9996,2 54092  53.1921   9.0388 0003822 342.0621  18.0242 15.24101030101202,6871.623,94.482,496.115,490.862,0.0
54092.0,STARLINK-5190,PAYLOAD,2024-08-14 12:52:40,15.24206868,0.0004022,53.1921,5.4211,344.4059,15.6815,0.0019841,0.00048977,0.0,0 STARLINK-5190,1 54092U 22136AT  24227.53657971  .00048977  00000-0  19841-2 0  9994,2 54092  53.1921   5.4211 0004022 344.4059  15.6815 15.24206868101328,6871.305,94.475,495.934,490.406,0.0
54092.0,STARLINK-5190,PAYLOAD,2024-08-14 14:27:05,15.24216887,0.000398,53.192,5.1192,345.7368,14.3517,0.0019951,0.00049267,0.0,0 STARLINK-5190,1 54092U 22136AT  24227.60215071  .00049267  00000-0  19951-2 0  9998,2 54092  53.1920   5.1192 0003980 345.7368  14.3517 15.24216887100866,6871.275,94.475,495.875,490.405,0.0
54092.0,STARLINK-5190,PAYLOAD,2024-08-14 16:01:31,15.2422872,0.0004007,53.1923,4.8176,345.858,14.2305,0.00208,0.00051411,0.0,0 STARLINK-5190,1 54092U 22136AT  24227.66772101  .00051411  00000-0  20800-2 0  9995,2 54092  53.1923   4.8176 0004007 345.8580  14.2305 15.24228720100879,6871.239,94.474,495.858,490.351,0.0
54092.0,STARLINK-5190,PAYLOAD,2024-08-15 15:37:46,15.24377472,0.0004318,53.1929,0.2933,348.4073,11.6826,0.0026707,0.00066542,0.0,0 STARLINK-5190,1 54092U 22136AT  24228.65122824  .00066542  00000-0  26707-2 0  9999,2 54092  53.1929   0.2933 0004318 348.4073  11.6826 15.24377472101023,6870.792,94.465,495.624,489.691,0.0
54092.0,STARLINK-5190,PAYLOAD,2024-08-15 17:12:10,15.24389791,0.0004324,53.1929,359.9915,349.038,11.0523,0.0027305,0.00068079,0.0,0 STARLINK-5190,1 54092U 22136AT  24228.71679196  .00068079  00000-0  27305-2 0  9997,2 54092  53.1929 359.9915 0004324 349.0380  11.0523 15.24389791101500,6870.755,94.464,495.591,489.649,0.0
54092.0,STARLINK-5190,PAYLOAD,2024-08-16 18:22:44,15.24476323,0.0004543,53.1938,355.1645,357.1593,2.9379,0.0022651,0.00056476,0.0,0 STARLINK-5190,1 54092U 22136AT  24229.76579131  .00056476  00000-0  22651-2 0  9998,2 54092  53.1938 355.1645 0004543 357.1593   2.9379 15.24476323101660,6870.495,94.459,495.482,489.239,0.0
54092.0,STARLINK-5190,PAYLOAD,2024-08-17 08:32:22,15.24538573,0.000472,53.194,352.4507,357.6,2.4975,0.0019165,0.00047765,0.0,0 STARLINK-5190,1 54092U 22136AT  24230.35581695  .00047765  00000-0  19165-2 0  9990,2 54092  53.1940 352.4507 0004720 357.6000   2.4975 15.24538573101286,6870.308,94.455,495.416,488.931,0.0
54092.0,STARLINK-5190,PAYLOAD,2024-08-17 16:24:22,15.24594727,0.0005096,53.1957,350.9435,356.5935,3.5028,0.0030478,0.00076593,0.0,0 STARLINK-5190,1 54092U 22136AT  24230.68359695  .00076593  00000-0  30478-2 0  9990,2 54092  53.1957 350.9435 0005096 356.5935   3.5028 15.24594727101801,6870.14,94.451,495.506,488.504,0.0
54092.0,STARLINK-5190,PAYLOAD,2024-08-18 12:51:32,15.24639594,0.0004314,53.1947,347.0207,359.6138,0.4857,0.0010854,0.00026908,0.0,0 STARLINK-5190,1 54092U 22136AT  24231.53579232  .00026908  00000-0  10854-2 0  9997,2 54092  53.1947 347.0207 0004314 359.6138   0.4857 15.24639594101937,6870.005,94.449,494.834,488.906,0.0
54092.0,STARLINK-5190,PAYLOAD,2024-08-18 17:34:43,15.24652576,0.0004983,53.1947,346.1174,358.5944,1.504,0.0014509,0.00036146,0.0,0 STARLINK-5190,1 54092U 22136AT  24231.73245320  .00036146  00000-0  14509-2 0  9993,2 54092  53.1947 346.1174 0004983 358.5944   1.5040 15.24652576101497,6869.966,94.448,495.254,488.408,0.0
54092.0,STARLINK-5190,PAYLOAD,2024-08-19 10:53:04,15.24694787,0.0005143,53.1953,342.7986,1.1364,358.9646,0.0011345,0.00028195,0.0,0 STARLINK-5190,1 54092U 22136AT  24232.45351927  .00028195  00000-0  11345-2 0  9994,2 54092  53.1953 342.7986 0005143   1.1364 358.9646 15.24694787101607,6869.839,94.445,495.237,488.171,0.0
54092.0,STARLINK-5190,PAYLOAD,2024-08-19 17:10:37,15.24750577,0.0004641,53.1958,341.5862,4.8797,355.2246,0.0022723,0.0005713,0.0,0 STARLINK-5190,1 54092U 22136AT  24232.71571287  .00057130  00000-0  22723-2 0  9999,2 54092  53.1958 341.5862 0004641   4.8797 355.2246 15.24750577102117,6869.672,94.442,494.725,488.348,0.0
